[{"OBJECT_NAME":"CALSPHERE 1","OBJECT_ID":"1964-063C","EPOCH":"2026-02-01T19:37:03.010080","MEAN_MOTION":13.76448614,"ECCENTRICITY":0.00244451,"INCLINATION":90.2164,"RA_OF_ASC_NODE":68.6357,"ARG_OF_PERICENTER":346.8779,"MEAN_ANOMALY":76.9,"EPHEMERIS_TYPE":0,"CLASSIFICATION_TYPE":"U","NORAD_CAT_ID":900,"ELEMENT_SET_NO":999,"REV_AT_EPOCH":5280,"BSTAR":0.00066532362,"MEAN_MOTION_DOT":6.61e-6,"MEAN_MOTION_DDOT":0},{"OBJECT_NAME":"CALSPHERE 2","OBJECT_ID":"1964-063E","EPOCH":"2026-02-01T20:32:37.172256","MEAN_MOTION":13.52888496,"ECCENTRICITY":0.00166161,"INCLINATION":90.2297,"RA_OF_ASC_NODE":72.6066,"ARG_OF_PERICENTER":259.035,"MEAN_ANOMALY":274.7944,"EPHEMERIS_TYPE":0,"CLASSIFICATION_TYPE":"U","NORAD_CAT_ID":902,"ELEMENT_SET_NO":999,"REV_AT_EPOCH":83796,"BSTAR":5.876411e-5,"MEAN_MOTION_DOT":4.8e-7,"MEAN_MOTION_DDOT":0},{"OBJECT_NAME":"LCS 1","OBJECT_ID":"1965-034C","EPOCH":"2026-02-01T15:49:41.155968","MEAN_MOTION":9.89309874,"ECCENTRICITY":0.00134302,"INCLINATION":32.1386,"RA_OF_ASC_NODE":138.811,"ARG_OF_PERICENTER":1.3089,"MEAN_ANOMALY":358.7443,"EPHEMERIS_TYPE":0,"CLASSIFICATION_TYPE":"U","NORAD_CAT_ID":1361,"ELEMENT_SET_NO":999,"REV_AT_EPOCH":19646,"BSTAR":-0.0021987574,"MEAN_MOTION_DOT":-8.0e-8,"MEAN_MOTION_DDOT":0},{"OBJECT_NAME":"TEMPSAT 1","OBJECT_ID":"1965-065E","EPOCH":"2026-02-01T22:53:25.590624","MEAN_MOTION":13.33586691,"ECCENTRICITY":0.00678356,"INCLINATION":89.9874,"RA_OF_ASC_NODE":212.6138,"ARG_OF_PERICENTER":268.3852,"MEAN_ANOMALY":247.284,"EPHEMERIS_TYPE":0,"CLASSIFICATION_TYPE":"U","NORAD_CAT_ID":1512,"ELEMENT_SET_NO":999,"REV_AT_EPOCH":94202,"BSTAR":4.8934352e-5,"MEAN_MOTION_DOT":3.3e-7,"MEAN_MOTION_DDOT":0},{"OBJECT_NAME":"CALSPHERE 4A","OBJECT_ID":"1965-065H","EPOCH":"2026-02-01T18:45:43.032384","MEAN_MOTION":13.36252251,"ECCENTRICITY":0.00715704,"INCLINATION":89.9096,"RA_OF_ASC_NODE":123.798,"ARG_OF_PERICENTER":125.3969,"MEAN_ANOMALY":3.0185,"EPHEMERIS_TYPE":0,"CLASSIFICATION_TYPE":"U","NORAD_CAT_ID":1520,"ELEMENT_SET_NO":999,"REV_AT_EPOCH":94462,"BSTAR":0.00017226551,"MEAN_MOTION_DOT":1.0e-6,"MEAN_MOTION_DDOT":0},{"OBJECT_NAME":"OPS 5712 (P/L 160)","OBJECT_ID":"1967-053A","EPOCH":"2026-02-01T23:31:17.093280","MEAN_MOTION":14.75456856,"ECCENTRICITY":0.00064011,"INCLINATION":69.9188,"RA_OF_ASC_NODE":9.1522,"ARG_OF_PERICENTER":260.8356,"MEAN_ANOMALY":99.2066,"EPHEMERIS_TYPE":0,"CLASSIFICATION_TYPE":"U","NORAD_CAT_ID":2826,"ELEMENT_SET_NO":999,"REV_AT_EPOCH":4627,"BSTAR":0.0013998342,"MEAN_MOTION_DOT":9.471e-5,"MEAN_MOTION_DDOT":0},{"OBJECT_NAME":"OPS 5712 (P/L 153)","OBJECT_ID":"1967-053H","EPOCH":"2026-02-01T18:44:21.193440","MEAN_MOTION":13.96804224,"ECCENTRICITY":0.00072854,"INCLINATION":69.9734,"RA_OF_ASC_NODE":45.5341,"ARG_OF_PERICENTER":347.7531,"MEAN_ANOMALY":12.3397,"EPHEMERIS_TYPE":0,"CLASSIFICATION_TYPE":"U","NORAD_CAT_ID":2874,"ELEMENT_SET_NO":999,"REV_AT_EPOCH":98787,"BSTAR":6.5473137e-5,"MEAN_MOTION_DOT":3.8e-7,"MEAN_MOTION_DDOT":0},{"OBJECT_NAME":"RIGIDSPHERE 2 (LCS 4)","OBJECT_ID":"1971-067E","EPOCH":"2026-02-01T23:11:48.969600","MEAN_MOTION":14.37670473,"ECCENTRICITY":0.00587207,"INCLINATION":87.6219,"RA_OF_ASC_NODE":16.3177,"ARG_OF_PERICENTER":323.4615,"MEAN_ANOMALY":36.2583,"EPHEMERIS_TYPE":0,"CLASSIFICATION_TYPE":"U","NORAD_CAT_ID":5398,"ELEMENT_SET_NO":999,"REV_AT_EPOCH":85445,"BSTAR":0.00033190933,"MEAN_MOTION_DOT":1.034e-5,"MEAN_MOTION_DDOT":0},{"OBJECT_NAME":"COSMOS 2493 (SKRL-756 1)","OBJECT_ID":"2013-078A","EPOCH":"2026-02-01T23:01:15.654144","MEAN_MOTION":15.01254988,"ECCENTRICITY":0.00127137,"INCLINATION":82.4115,"RA_OF_ASC_NODE":33.4025,"ARG_OF_PERICENTER":349.7175,"MEAN_ANOMALY":10.3787,"EPHEMERIS_TYPE":0,"CLASSIFICATION_TYPE":"U","NORAD_CAT_ID":39490,"ELEMENT_SET_NO":999,"REV_AT_EPOCH":65766,"BSTAR":0.00025204248,"MEAN_MOTION_DOT":3.269e-5,"MEAN_MOTION_DDOT":0},{"OBJECT_NAME":"COSMOS 2494 (SKRL-756 2)","OBJECT_ID":"2013-078B","EPOCH":"2026-02-01T22:18:17.458272","MEAN_MOTION":15.03848745,"ECCENTRICITY":0.0014991,"INCLINATION":82.4121,"RA_OF_ASC_NODE":23.3758,"ARG_OF_PERICENTER":308.2035,"MEAN_ANOMALY":51.784,"EPHEMERIS_TYPE":0,"CLASSIFICATION_TYPE":"U","NORAD_CAT_ID":39491,"ELEMENT_SET_NO":999,"REV_AT_EPOCH":65847,"BSTAR":0.00029093941,"MEAN_MOTION_DOT":4.038e-5,"MEAN_MOTION_DDOT":0}]
