CALSPHERE 1             
1 00900U 64063C   26032.81739595  .00000661  00000+0  66532-3 0  9995
2 00900  90.2164  68.6357 0024445 346.8779  76.9000 13.76448614 52802
CALSPHERE 2             
1 00902U 64063E   26032.85598579  .00000048  00000+0  58764-4 0  9994
2 00902  90.2297  72.6066 0016616 259.0350 274.7944 13.52888496837967
LCS 1                   
1 01361U 65034C   26032.65950412 -.00000008  00000+0 -21988-2 0  9993
2 01361  32.1386 138.8110 0013430   1.3089 358.7443  9.89309874196467
TEMPSAT 1               
1 01512U 65065E   26032.95376841  .00000033  00000+0  48934-4 0  9994
2 01512  89.9874 212.6138 0067835 268.3852 247.2840 13.33586691942021
CALSPHERE 4A            
1 01520U 65065H   26032.78174806  .00000100  00000+0  17227-3 0  9996
2 01520  89.9096 123.7980 0071570 125.3969   3.0185 13.36252251944628
OPS 5712 (P/L 160)      
1 02826U 67053A   26032.98005895  .00009471  00000+0  13998-2 0  9998
2 02826  69.9188   9.1522 0006401 260.8356  99.2066 14.75456856 46273
OPS 5712 (P/L 153)      
1 02874U 67053H   26032.78080085  .00000038  00000+0  65473-4 0  9990
2 02874  69.9734  45.5341 0007285 347.7531  12.3397 13.96804224987878
RIGIDSPHERE 2 (LCS 4)   
1 05398U 71067E   26032.96653900  .00001034  00000+0  33191-3 0  9994
2 05398  87.6219  16.3177 0058720 323.4615  36.2583 14.37670473854456
COSMOS 2493 (SKRL-756 1)
1 39490U 13078A   26032.95920896  .00003269  00000+0  25204-3 0  9990
2 39490  82.4115  33.4025 0012713 349.7175  10.3787 15.01254988657664
COSMOS 2494 (SKRL-756 2)
1 39491U 13078B   26032.92936873  .00004038  00000+0  29094-3 0  9996
2 39491  82.4121  23.3758 0014991 308.2035  51.7840 15.03848745658479
